{
  "type": "FeatureCollection",
  "features": [
    {
      "type": "Feature",
      "properties": {
        "norad_id": 34492,
        "name": "IRIDIUM 33 DEB",
        "group": "iridium-33-debris",
        "lat": 66.78744079817443,
        "lon": -20.68405014282426,
        "alt_km": 905.4254836827722,
        "timestamp": "2025-12-21T14:40:48.303410+00:00",
        "meta_object_name": "IRIDIUM 33 DEB",
        "meta_object_id": "1997-051GH",
        "meta_epoch": "2025-12-19T10:45:18.347328",
        "meta_mean_motion": 14.25846982,
        "meta_eccentricity": 0.0188646,
        "meta_inclination": 86.4707,
        "meta_ra_of_asc_node": 331.9164,
        "meta_arg_of_pericenter": 216.3823,
        "meta_mean_anomaly": 273.3437,
        "meta_ephemeris_type": 0,
        "meta_classification_type": "U",
        "meta_norad_cat_id": 34492,
        "meta_element_set_no": 999,
        "meta_rev_at_epoch": 85154,
        "meta_bstar": 0.0022012,
        "meta_mean_motion_dot": 6.332e-05,
        "meta_mean_motion_ddot": 0,
        "tle_line1": "1 34492U 97051GH  25353.44812902  .00006332  00000+0  22012-2 0  9994",
        "tle_line2": "2 34492  86.4707 331.9164 0188646 216.3823 273.3437 14.25846982851542"
      },
      "geometry": {
        "type": "Point",
        "coordinates": [
          -20.68405014282426,
          66.78744079817443
        ]
      }
    },
    {
      "type": "Feature",
      "properties": {
        "norad_id": 34497,
        "name": "IRIDIUM 33 DEB",
        "group": "iridium-33-debris",
        "lat": 0.14789184552199672,
        "lon": 48.621132590275856,
        "alt_km": 766.7079752962682,
        "timestamp": "2025-12-21T14:40:48.303424+00:00",
        "meta_object_name": "IRIDIUM 33 DEB",
        "meta_object_id": "1997-051GN",
        "meta_epoch": "2025-12-21T03:02:18.965760",
        "meta_mean_motion": 14.27475874,
        "meta_eccentricity": 0.00780469,
        "meta_inclination": 86.2771,
        "meta_ra_of_asc_node": 48.8187,
        "meta_arg_of_pericenter": 312.1215,
        "meta_mean_anomaly": 76.3389,
        "meta_ephemeris_type": 0,
        "meta_classification_type": "U",
        "meta_norad_cat_id": 34497,
        "meta_element_set_no": 999,
        "meta_rev_at_epoch": 87003,
        "meta_bstar": 0.00042941712,
        "meta_mean_motion_dot": 1.107e-05,
        "meta_mean_motion_ddot": 0,
        "tle_line1": "1 34497U 97051GN  25355.12660840  .00001107  00000+0  42942-3 0  9998",
        "tle_line2": "2 34497  86.2771  48.8187 0078046 312.1215  76.3389 14.27475874870039"
      },
      "geometry": {
        "type": "Point",
        "coordinates": [
          48.621132590275856,
          0.14789184552199672
        ]
      }
    },
    {
      "type": "Feature",
      "properties": {
        "norad_id": 34508,
        "name": "IRIDIUM 33 DEB",
        "group": "iridium-33-debris",
        "lat": 31.52791439844689,
        "lon": -83.34887709238266,
        "alt_km": 714.3333150782455,
        "timestamp": "2025-12-21T14:40:48.303434+00:00",
        "meta_object_name": "IRIDIUM 33 DEB",
        "meta_object_id": "1997-051GZ",
        "meta_epoch": "2025-12-21T00:38:21.315840",
        "meta_mean_motion": 14.38484044,
        "meta_eccentricity": 0.00666098,
        "meta_inclination": 86.371,
        "meta_ra_of_asc_node": 99.1304,
        "meta_arg_of_pericenter": 146.3518,
        "meta_mean_anomaly": 214.1938,
        "meta_ephemeris_type": 0,
        "meta_classification_type": "U",
        "meta_norad_cat_id": 34508,
        "meta_element_set_no": 999,
        "meta_rev_at_epoch": 87428,
        "meta_bstar": 0.00080829336,
        "meta_mean_motion_dot": 2.552e-05,
        "meta_mean_motion_ddot": 0,
        "tle_line1": "1 34508U 97051GZ  25355.02663560  .00002552  00000+0  80829-3 0  9993",
        "tle_line2": "2 34508  86.3710  99.1304 0066609 146.3518 214.1938 14.38484044874285"
      },
      "geometry": {
        "type": "Point",
        "coordinates": [
          -83.34887709238266,
          31.52791439844689
        ]
      }
    },
    {
      "type": "Feature",
      "properties": {
        "norad_id": 34521,
        "name": "IRIDIUM 33 DEB",
        "group": "iridium-33-debris",
        "lat": 41.255831067721864,
        "lon": 29.82632974170327,
        "alt_km": 680.2154972399658,
        "timestamp": "2025-12-21T14:40:48.303445+00:00",
        "meta_object_name": "IRIDIUM 33 DEB",
        "meta_object_id": "1997-051HN",
        "meta_epoch": "2025-12-20T20:26:24.360576",
        "meta_mean_motion": 14.63427269,
        "meta_eccentricity": 0.0002559,
        "meta_inclination": 86.3787,
        "meta_ra_of_asc_node": 26.9765,
        "meta_arg_of_pericenter": 179.8016,
        "meta_mean_anomaly": 180.3197,
        "meta_ephemeris_type": 0,
        "meta_classification_type": "U",
        "meta_norad_cat_id": 34521,
        "meta_element_set_no": 999,
        "meta_rev_at_epoch": 88591,
        "meta_bstar": 0.00054052,
        "meta_mean_motion_dot": 2.817e-05,
        "meta_mean_motion_ddot": 0,
        "tle_line1": "1 34521U 97051HN  25354.85167084  .00002817  00000+0  54052-3 0  9991",
        "tle_line2": "2 34521  86.3787  26.9765 0002559 179.8016 180.3197 14.63427269885918"
      },
      "geometry": {
        "type": "Point",
        "coordinates": [
          29.82632974170327,
          41.255831067721864
        ]
      }
    },
    {
      "type": "Feature",
      "properties": {
        "norad_id": 34525,
        "name": "IRIDIUM 33 DEB",
        "group": "iridium-33-debris",
        "lat": -72.58668759788898,
        "lon": 31.385650274375422,
        "alt_km": 760.1168467925227,
        "timestamp": "2025-12-21T14:40:48.303455+00:00",
        "meta_object_name": "IRIDIUM 33 DEB",
        "meta_object_id": "1997-051HS",
        "meta_epoch": "2025-12-21T03:29:36.485088",
        "meta_mean_motion": 14.42923507,
        "meta_eccentricity": 0.00064437,
        "meta_inclination": 86.372,
        "meta_ra_of_asc_node": 43.2557,
        "meta_arg_of_pericenter": 76.0018,
        "meta_mean_anomaly": 311.4457,
        "meta_ephemeris_type": 0,
        "meta_classification_type": "U",
        "meta_norad_cat_id": 34525,
        "meta_element_set_no": 999,
        "meta_rev_at_epoch": 88209,
        "meta_bstar": 0.00023924914,
        "meta_mean_motion_dot": 8.19e-06,
        "meta_mean_motion_ddot": 0,
        "tle_line1": "1 34525U 97051HS  25355.14556117  .00000819  00000+0  23925-3 0  9992",
        "tle_line2": "2 34525  86.3720  43.2557 0006443  76.0018 311.4457 14.42923507882091"
      },
      "geometry": {
        "type": "Point",
        "coordinates": [
          31.385650274375422,
          -72.58668759788898
        ]
      }
    },
    {
      "type": "Feature",
      "properties": {
        "norad_id": 34529,
        "name": "IRIDIUM 33 DEB",
        "group": "iridium-33-debris",
        "lat": 71.00366820863884,
        "lon": -159.0165415499511,
        "alt_km": 746.6068525911896,
        "timestamp": "2025-12-21T14:40:48.303465+00:00",
        "meta_object_name": "IRIDIUM 33 DEB",
        "meta_object_id": "1997-051HW",
        "meta_epoch": "2025-12-21T02:30:30.769056",
        "meta_mean_motion": 14.40621874,
        "meta_eccentricity": 0.0005784,
        "meta_inclination": 86.3633,
        "meta_ra_of_asc_node": 31.8458,
        "meta_arg_of_pericenter": 152.3196,
        "meta_mean_anomaly": 207.8312,
        "meta_ephemeris_type": 0,
        "meta_classification_type": "U",
        "meta_norad_cat_id": 34529,
        "meta_element_set_no": 999,
        "meta_rev_at_epoch": 88262,
        "meta_bstar": 8.4650743e-05,
        "meta_mean_motion_dot": 2.9e-06,
        "meta_mean_motion_ddot": 0,
        "tle_line1": "1 34529U 97051HW  25355.10452279  .00000290  00000+0  84651-4 0  9993",
        "tle_line2": "2 34529  86.3633  31.8458 0005784 152.3196 207.8312 14.40621874882620"
      },
      "geometry": {
        "type": "Point",
        "coordinates": [
          -159.0165415499511,
          71.00366820863884
        ]
      }
    },
    {
      "type": "Feature",
      "properties": {
        "norad_id": 34538,
        "name": "IRIDIUM 33 DEB",
        "group": "iridium-33-debris",
        "lat": 11.51760229312039,
        "lon": 2.4300598795588635,
        "alt_km": 744.7438877643726,
        "timestamp": "2025-12-21T14:40:48.303476+00:00",
        "meta_object_name": "IRIDIUM 33 DEB",
        "meta_object_id": "1997-051JF",
        "meta_epoch": "2025-12-21T01:35:09.173760",
        "meta_mean_motion": 14.4269214,
        "meta_eccentricity": 0.00321288,
        "meta_inclination": 86.2756,
        "meta_ra_of_asc_node": 1.9085,
        "meta_arg_of_pericenter": 299.2748,
        "meta_mean_anomaly": 120.1936,
        "meta_ephemeris_type": 0,
        "meta_classification_type": "U",
        "meta_norad_cat_id": 34538,
        "meta_element_set_no": 999,
        "meta_rev_at_epoch": 87876,
        "meta_bstar": 0.00062386446,
        "meta_mean_motion_dot": 2.106e-05,
        "meta_mean_motion_ddot": 0,
        "tle_line1": "1 34538U 97051JF  25355.06607840  .00002106  00000+0  62386-3 0  9992",
        "tle_line2": "2 34538  86.2756   1.9085 0032128 299.2748 120.1936 14.42692140878760"
      },
      "geometry": {
        "type": "Point",
        "coordinates": [
          2.4300598795588635,
          11.51760229312039
        ]
      }
    }
  ]
}